[{"OBJECT_NAME":"BUGSAT-1 (TITA)","OBJECT_ID":"2014-033E","EPOCH":"2026-03-09T23:14:58.322976","MEAN_MOTION":15.14502987,"ECCENTRICITY":0.00292569,"INCLINATION":98.0428,"RA_OF_ASC_NODE":155.8085,"ARG_OF_PERICENTER":157.4521,"MEAN_ANOMALY":202.8002,"EPHEMERIS_TYPE":0,"CLASSIFICATION_TYPE":"U","NORAD_CAT_ID":40014,"ELEMENT_SET_NO":999,"REV_AT_EPOCH":64081,"BSTAR":0.00030961592,"MEAN_MOTION_DOT":5.686e-5,"MEAN_MOTION_DDOT":0},{"OBJECT_NAME":"STARLINK-5335","OBJECT_ID":"2023-065F","EPOCH":"2026-03-09T22:00:01.999584","MEAN_MOTION":15.06821333,"ECCENTRICITY":0.00017724,"INCLINATION":43.0002,"RA_OF_ASC_NODE":209.3263,"ARG_OF_PERICENTER":312.5091,"MEAN_ANOMALY":145.9367,"EPHEMERIS_TYPE":0,"CLASSIFICATION_TYPE":"U","NORAD_CAT_ID":56508,"ELEMENT_SET_NO":999,"REV_AT_EPOCH":567,"BSTAR":0.0069096055,"MEAN_MOTION_DOT":0.0010608,"MEAN_MOTION_DDOT":0}]
